[Satellite]
VERSION=1.1
NAME=SL-8 R/B
NICKNAME=SL-8 R/B
TLE1=1 21938U 92020B   15053.21493119  .00000171  00000-0  16260-3 0  9997
TLE2=2 21938  82.9271 268.5001 0029664  34.8779 103.3852 13.75199325147011
